GRBBETA                 
1 60237U 24128C   26073.62106491  .00006669  00000+0  45815-3 0  9994
2 60237  61.9900 187.8576 0050982 115.0019 245.6380 15.05861275 92029
OOV-CUBE (TUBSAT-30)    
1 60240U 24128F   26073.62163683  .00004141  00000+0  31800-3 0  9996
2 60240  61.9949 195.2009 0054104 113.3541 247.3255 15.02294035 91908
ROBUSTA-3A (MEDITERRAN*)
1 60243U 24128J   26073.56444431  .00013995  00000+0  83775-3 0  9990
2 60243  61.9863 182.4870 0051267 109.1432 251.5222 15.10195484 92122
LASARSAT                
1 62391U 24247Q   26073.28980069  .00038386  00000+0  93019-3 0  9992
2 62391  44.9755  73.1375 0002158  85.8847 274.2287 15.40492839 68651
CROCUBE                 
1 62394U 24247T   26072.40892954  .00036311  00000+0  84900-3 0  9998
2 62394  44.9732  76.6258 0001785  59.1506 300.9557 15.41595731 68538
