[{"OBJECT_NAME":"GRBBETA","OBJECT_ID":"2024-128C","EPOCH":"2026-03-14T14:54:20.008224","MEAN_MOTION":15.05861275,"ECCENTRICITY":0.0050982,"INCLINATION":61.99,"RA_OF_ASC_NODE":187.8576,"ARG_OF_PERICENTER":115.0019,"MEAN_ANOMALY":245.638,"EPHEMERIS_TYPE":0,"CLASSIFICATION_TYPE":"U","NORAD_CAT_ID":60237,"ELEMENT_SET_NO":999,"REV_AT_EPOCH":9202,"BSTAR":0.00045815441,"MEAN_MOTION_DOT":6.669e-5,"MEAN_MOTION_DDOT":0},{"OBJECT_NAME":"OOV-CUBE (TUBSAT-30)","OBJECT_ID":"2024-128F","EPOCH":"2026-03-14T14:55:09.422112","MEAN_MOTION":15.02294035,"ECCENTRICITY":0.00541042,"INCLINATION":61.9949,"RA_OF_ASC_NODE":195.2009,"ARG_OF_PERICENTER":113.3541,"MEAN_ANOMALY":247.3255,"EPHEMERIS_TYPE":0,"CLASSIFICATION_TYPE":"U","NORAD_CAT_ID":60240,"ELEMENT_SET_NO":999,"REV_AT_EPOCH":9190,"BSTAR":0.0003179983,"MEAN_MOTION_DOT":4.141e-5,"MEAN_MOTION_DDOT":0},{"OBJECT_NAME":"ROBUSTA-3A (MEDITERRANEE)","OBJECT_ID":"2024-128J","EPOCH":"2026-03-14T13:32:47.988384","MEAN_MOTION":15.10195484,"ECCENTRICITY":0.00512678,"INCLINATION":61.9863,"RA_OF_ASC_NODE":182.487,"ARG_OF_PERICENTER":109.1432,"MEAN_ANOMALY":251.5222,"EPHEMERIS_TYPE":0,"CLASSIFICATION_TYPE":"U","NORAD_CAT_ID":60243,"ELEMENT_SET_NO":999,"REV_AT_EPOCH":9212,"BSTAR":0.00083775108,"MEAN_MOTION_DOT":0.00013995,"MEAN_MOTION_DDOT":0},{"OBJECT_NAME":"LASARSAT","OBJECT_ID":"2024-247Q","EPOCH":"2026-03-14T06:57:18.779616","MEAN_MOTION":15.40492839,"ECCENTRICITY":0.00021589,"INCLINATION":44.9755,"RA_OF_ASC_NODE":73.1375,"ARG_OF_PERICENTER":85.8847,"MEAN_ANOMALY":274.2287,"EPHEMERIS_TYPE":0,"CLASSIFICATION_TYPE":"U","NORAD_CAT_ID":62391,"ELEMENT_SET_NO":999,"REV_AT_EPOCH":6865,"BSTAR":0.00093019142,"MEAN_MOTION_DOT":0.00038386,"MEAN_MOTION_DDOT":0},{"OBJECT_NAME":"CROCUBE","OBJECT_ID":"2024-247T","EPOCH":"2026-03-13T09:48:51.512256","MEAN_MOTION":15.41595731,"ECCENTRICITY":0.0001785,"INCLINATION":44.9732,"RA_OF_ASC_NODE":76.6258,"ARG_OF_PERICENTER":59.1506,"MEAN_ANOMALY":300.9557,"EPHEMERIS_TYPE":0,"CLASSIFICATION_TYPE":"U","NORAD_CAT_ID":62394,"ELEMENT_SET_NO":999,"REV_AT_EPOCH":6853,"BSTAR":0.0008489978,"MEAN_MOTION_DOT":0.00036311,"MEAN_MOTION_DDOT":0}]
